{
  "norad_id": 60259,
  "name": "STARLINK-32207",
  "history": [
    {
      "epoch": "2026-03-28T21:07:22.755072Z",
      "apogee_km": 475.8252172786706,
      "perigee_km": 474.6997520153027,
      "latitude_deg": -6.17887487881687e-05,
      "longitude_deg": -179.6100850261927,
      "height_km": 476.1778797798894,
      "semi_major_axis_km": 6853.399484646987,
      "eccentricity": 8.211e-05,
      "inclination_deg": 53.16,
      "raan_deg": 323.529,
      "arg_perigee_deg": 91.7022,
      "mean_anomaly_deg": 268.4072,
      "mean_motion_rev_day": 15.3018412
    },
    {
      "epoch": "2026-03-28T22:41:26.026368Z",
      "apogee_km": 475.81937962781285,
      "perigee_km": 474.6913112477532,
      "latitude_deg": -3.715188587836004e-05,
      "longitude_deg": 156.50842487158593,
      "height_km": 476.0932780407253,
      "semi_major_axis_km": 6853.392345437783,
      "eccentricity": 8.23e-05,
      "inclination_deg": 53.1602,
      "raan_deg": 323.2255,
      "arg_perigee_deg": 83.8148,
      "mean_anomaly_deg": 276.2946,
      "mean_motion_rev_day": 15.30186511
    },
    {
      "epoch": "2026-03-29T22:12:13.095648Z",
      "apogee_km": 475.82852017552705,
      "perigee_km": 474.61396802750824,
      "latitude_deg": -2.472679293859257e-05,
      "longitude_deg": 158.29316490778243,
      "height_km": 475.7593049802751,
      "semi_major_axis_km": 6853.358244101518,
      "eccentricity": 8.861e-05,
      "inclination_deg": 53.1594,
      "raan_deg": 318.672,
      "arg_perigee_deg": 53.561,
      "mean_anomaly_deg": 306.5472,
      "mean_motion_rev_day": 15.30197932
    },
    {
      "epoch": "2026-03-30T21:42:57.724128Z",
      "apogee_km": 475.5133709623515,
      "perigee_km": 474.7212718278852,
      "latitude_deg": 4.4388651782141316e-05,
      "longitude_deg": 160.0915456610498,
      "height_km": 475.9679473828621,
      "semi_major_axis_km": 6853.254321395118,
      "eccentricity": 5.779e-05,
      "inclination_deg": 53.16,
      "raan_deg": 314.1219,
      "arg_perigee_deg": 82.9837,
      "mean_anomaly_deg": 277.123,
      "mean_motion_rev_day": 15.30232738
    }
  ]
}